<?xml version="1.0" encoding="UTF-8"?>
<ndm xmlns:xsi="http://www.w3.org/2001/XMLSchema-instance" xsi:noNamespaceSchemaLocation="https://sanaregistry.org/r/ndmxml_unqualified/ndmxml-2.0.0-master-2.0.xsd">
<omm id="CCSDS_OMM_VERS" version="2.0">
<header><CREATION_DATE/><ORIGINATOR/></header><body><segment><metadata><OBJECT_NAME>ORBCOMM FM115 [+]</OBJECT_NAME><OBJECT_ID>2015-081H</OBJECT_ID><CENTER_NAME>EARTH</CENTER_NAME><REF_FRAME>TEME</REF_FRAME><TIME_SYSTEM>UTC</TIME_SYSTEM><MEAN_ELEMENT_THEORY>SGP4</MEAN_ELEMENT_THEORY></metadata><data><meanElements><EPOCH>2024-04-13T14:47:41.023392</EPOCH><MEAN_MOTION>14.60541039</MEAN_MOTION><ECCENTRICITY>.0001351</ECCENTRICITY><INCLINATION>46.9983</INCLINATION><RA_OF_ASC_NODE>279.5803</RA_OF_ASC_NODE><ARG_OF_PERICENTER>251.5631</ARG_OF_PERICENTER><MEAN_ANOMALY>108.5109</MEAN_ANOMALY></meanElements><tleParameters><EPHEMERIS_TYPE>0</EPHEMERIS_TYPE><CLASSIFICATION_TYPE>U</CLASSIFICATION_TYPE><NORAD_CAT_ID>41186</NORAD_CAT_ID><ELEMENT_SET_NO>999</ELEMENT_SET_NO><REV_AT_EPOCH>44493</REV_AT_EPOCH><BSTAR>.27587E-3</BSTAR><MEAN_MOTION_DOT>.118E-4</MEAN_MOTION_DOT><MEAN_MOTION_DDOT>0</MEAN_MOTION_DDOT></tleParameters></data></segment></body></omm>
<omm id="CCSDS_OMM_VERS" version="2.0">
<header><CREATION_DATE/><ORIGINATOR/></header><body><segment><metadata><OBJECT_NAME>ORBCOMM FM108 [+]</OBJECT_NAME><OBJECT_ID>2015-081J</OBJECT_ID><CENTER_NAME>EARTH</CENTER_NAME><REF_FRAME>TEME</REF_FRAME><TIME_SYSTEM>UTC</TIME_SYSTEM><MEAN_ELEMENT_THEORY>SGP4</MEAN_ELEMENT_THEORY></metadata><data><meanElements><EPOCH>2024-04-14T18:05:26.209248</EPOCH><MEAN_MOTION>14.56455085</MEAN_MOTION><ECCENTRICITY>.000235</ECCENTRICITY><INCLINATION>47.0054</INCLINATION><RA_OF_ASC_NODE>327.6809</RA_OF_ASC_NODE><ARG_OF_PERICENTER>151.7673</ARG_OF_PERICENTER><MEAN_ANOMALY>208.3339</MEAN_ANOMALY></meanElements><tleParameters><EPHEMERIS_TYPE>0</EPHEMERIS_TYPE><CLASSIFICATION_TYPE>U</CLASSIFICATION_TYPE><NORAD_CAT_ID>41187</NORAD_CAT_ID><ELEMENT_SET_NO>999</ELEMENT_SET_NO><REV_AT_EPOCH>44438</REV_AT_EPOCH><BSTAR>.3984E-3</BSTAR><MEAN_MOTION_DOT>.162E-4</MEAN_MOTION_DOT><MEAN_MOTION_DDOT>0</MEAN_MOTION_DDOT></tleParameters></data></segment></body></omm>
<omm id="CCSDS_OMM_VERS" version="2.0">
<header><CREATION_DATE/><ORIGINATOR/></header><body><segment><metadata><OBJECT_NAME>ORBCOMM FM117 [+]</OBJECT_NAME><OBJECT_ID>2015-081K</OBJECT_ID><CENTER_NAME>EARTH</CENTER_NAME><REF_FRAME>TEME</REF_FRAME><TIME_SYSTEM>UTC</TIME_SYSTEM><MEAN_ELEMENT_THEORY>SGP4</MEAN_ELEMENT_THEORY></metadata><data><meanElements><EPOCH>2024-04-14T17:16:10.949088</EPOCH><MEAN_MOTION>14.56460151</MEAN_MOTION><ECCENTRICITY>.0002914</ECCENTRICITY><INCLINATION>47.0015</INCLINATION><RA_OF_ASC_NODE>326.7439</RA_OF_ASC_NODE><ARG_OF_PERICENTER>161.8013</ARG_OF_PERICENTER><MEAN_ANOMALY>198.2977</MEAN_ANOMALY></meanElements><tleParameters><EPHEMERIS_TYPE>0</EPHEMERIS_TYPE><CLASSIFICATION_TYPE>U</CLASSIFICATION_TYPE><NORAD_CAT_ID>41188</NORAD_CAT_ID><ELEMENT_SET_NO>999</ELEMENT_SET_NO><REV_AT_EPOCH>44439</REV_AT_EPOCH><BSTAR>.39759E-3</BSTAR><MEAN_MOTION_DOT>.1616E-4</MEAN_MOTION_DOT><MEAN_MOTION_DDOT>0</MEAN_MOTION_DDOT></tleParameters></data></segment></body></omm>
<omm id="CCSDS_OMM_VERS" version="2.0">
<header><CREATION_DATE/><ORIGINATOR/></header><body><segment><metadata><OBJECT_NAME>ORBCOMM FM116 [+]</OBJECT_NAME><OBJECT_ID>2015-081L</OBJECT_ID><CENTER_NAME>EARTH</CENTER_NAME><REF_FRAME>TEME</REF_FRAME><TIME_SYSTEM>UTC</TIME_SYSTEM><MEAN_ELEMENT_THEORY>SGP4</MEAN_ELEMENT_THEORY></metadata><data><meanElements><EPOCH>2024-04-13T22:54:02.371104</EPOCH><MEAN_MOTION>14.56437201</MEAN_MOTION><ECCENTRICITY>.0002656</ECCENTRICITY><INCLINATION>47.0027</INCLINATION><RA_OF_ASC_NODE>60.1634</RA_OF_ASC_NODE><ARG_OF_PERICENTER>263.3092</ARG_OF_PERICENTER><MEAN_ANOMALY>96.7491</MEAN_ANOMALY></meanElements><tleParameters><EPHEMERIS_TYPE>0</EPHEMERIS_TYPE><CLASSIFICATION_TYPE>U</CLASSIFICATION_TYPE><NORAD_CAT_ID>41189</NORAD_CAT_ID><ELEMENT_SET_NO>999</ELEMENT_SET_NO><REV_AT_EPOCH>44311</REV_AT_EPOCH><BSTAR>.23626E-3</BSTAR><MEAN_MOTION_DOT>.892E-5</MEAN_MOTION_DOT><MEAN_MOTION_DDOT>0</MEAN_MOTION_DDOT></tleParameters></data></segment></body></omm>
</ndm>
