ORBCOMM FM115 [+]       
1 41186U 15081H   24104.61644703  .00001180  00000+0  27587-3 0  9998
2 41186  46.9983 279.5803 0001351 251.5631 108.5109 14.60541039444939
ORBCOMM FM108 [+]       
1 41187U 15081J   24105.75377557  .00001620  00000+0  39840-3 0  9999
2 41187  47.0054 327.6809 0002350 151.7673 208.3339 14.56455085444382
ORBCOMM FM117 [+]       
1 41188U 15081K   24105.71957117  .00001616  00000+0  39759-3 0  9996
2 41188  47.0015 326.7439 0002914 161.8013 198.2977 14.56460151444391
ORBCOMM FM116 [+]       
1 41189U 15081L   24104.95419411  .00000892  00000+0  23626-3 0  9993
2 41189  47.0027  60.1634 0002656 263.3092  96.7491 14.56437201443111
